COMMENT,ORIGINATOR,NORAD_CAT_ID,OBJECT_NAME,OBJECT_TYPE,CLASSIFICATION_TYPE,INTLDES,EPOCH,EPOCH_MICROSECONDS,MEAN_MOTION,ECCENTRICITY,INCLINATION,RA_OF_ASC_NODE,ARG_OF_PERICENTER,MEAN_ANOMALY,EPHEMERIS_TYPE,ELEMENT_SET_NO,REV_AT_EPOCH,BSTAR,MEAN_MOTION_DOT,MEAN_MOTION_DDOT,FILE,TLE_LINE0,TLE_LINE1,TLE_LINE2,OBJECT_ID,OBJECT_NUMBER,SEMIMAJOR_AXIS,PERIOD,APOGEE,PERIGEE,DECAYED
GENERATED VIA SPACETRACK.ORG API,18 SPCS,42915,TDRS 13,PAYLOAD,U,17047A,2024-03-05 20:37:04,683936,1.00271554,0.0014158,3.7282,342.4766,106.3811,12.9687,0,999,2402,0,-0.00000096,0,4210030,0 TDRS 13,1 42915U 17047A   24065.85908199 -.00000096  00000-0  00000+0 0  9991,2 42915   3.7282 342.4766 0014158 106.3811  12.9687  1.00271554 24022,2017-047A,42915,42164.797,1436.100,35846.359,35726.965,0
GENERATED VIA SPACETRACK.ORG API,18 SPCS,41384,IRNSS 1F,PAYLOAD,U,16015A,2024-03-05 20:24:42,598656,1.00276832,0.0020331,3.3293,121.7865,190.7263,190.233,0,999,2930,0,0.00000157,0,4209611,0 IRNSS 1F,1 41384U 16015A   24065.85049304  .00000157  00000-0  00000+0 0  9995,2 41384   3.3293 121.7865 0020331 190.7263 190.2330  1.00276832 29300,2016-015A,41384,42163.317,1436.025,35870.904,35699.460,0
GENERATED VIA SPACETRACK.ORG API,18 SPCS,44307,YAMAL 601,PAYLOAD,U,19031A,2024-03-05 20:16:42,465216,1.00271079,0.0002346,0.0117,148.0155,205.2208,163.982,0,999,1755,0,0.0000012,0,4209961,0 YAMAL 601,1 44307U 19031A   24065.84493594  .00000120  00000-0  00000+0 0  9997,2 44307   0.0117 148.0155 0002346 205.2208 163.9820  1.00271079 17551,2019-031A,44307,42164.930,1436.107,35796.687,35776.903,0
GENERATED VIA SPACETRACK.ORG API,18 SPCS,33436,ASTRA 1M,PAYLOAD,U,08057A,2024-03-05 19:02:43,387008,1.00270595,0.0001526,0.0144,100.6249,307.3353,60.9064,0,999,5612,0,0.00000119,0,4209366,0 ASTRA 1M,1 33436U 08057A   24065.79355772  .00000119  00000-0  00000+0 0  9991,2 33436   0.0144 100.6249 0001526 307.3353  60.9064  1.00270595 56128,2008-057A,33436,42165.066,1436.114,35793.365,35780.496,0
GENERATED VIA SPACETRACK.ORG API,18 SPCS,8832,TITAN 3C TRANSTAGE DEB,DEBRIS,U,76023J,2024-03-05 18:25:01,714080,0.98258378,0.0137468,20.1063,53.2493,73.5321,31.0683,0,999,10940,0,-0.00000002,0,4209371,0 TITAN 3C TRANSTAGE DEB,1  8832U 76023J   24065.76738095 -.00000002  00000-0  00000+0 0  9993,2  8832  20.1063  53.2493 0137468  73.5321  31.0683  0.98258378109406,1976-023J,8832,42738.779,1465.524,36948.166,35773.123,0
GENERATED VIA SPACETRACK.ORG API,18 SPCS,25967,UFO 10 (USA 146),PAYLOAD,U,99063A,2024-03-05 15:24:31,521600,1.00268227,0.0003714,9.3997,31.0799,281.1722,59.7881,0,999,8898,0,-0.00000185,0,4210211,0 UFO 10 (USA 146),1 25967U 99063A   24065.64203150 -.00000185  00000-0  00000+0 0  9998,2 25967   9.3997  31.0799 0003714 281.1722  59.7881  1.00268227 88984,1999-063A,25967,42165.729,1436.148,35803.255,35771.934,0
GENERATED VIA SPACETRACK.ORG API,18 SPCS,44307,YAMAL 601,PAYLOAD,U,19031A,2024-03-05 15:11:23,790336,1.00271026,0.0002348,0.0117,150.2666,202.8376,87.5779,0,999,1755,0,0.0000012,0,4209183,0 YAMAL 601,1 44307U 19031A   24065.63291424  .00000120  00000-0  00000-0 0  9993,2 44307   0.0117 150.2666 0002348 202.8376  87.5779  1.00271026 17550,2019-031A,44307,42164.945,1436.108,35796.710,35776.909,0
GENERATED VIA SPACETRACK.ORG API,18 SPCS,28945,SPAINSAT,PAYLOAD,U,06007A,2024-03-05 15:04:25,805280,1.00272295,0.0003016,0.0456,246.0969,79.4158,34.4497,0,999,6586,0,-0.00000215,0,4211361,0 SPAINSAT,1 28945U 06007A   24065.62807645 -.00000215  00000-0  00000-0 0  9995,2 28945   0.0456 246.0969 0003016  79.4158  34.4497  1.00272295 65869,2006-007A,28945,42164.589,1436.090,35799.171,35773.737,0
GENERATED VIA SPACETRACK.ORG API,18 SPCS,41937,SBIRS GEO 4 (USA 273),PAYLOAD,U,17004A,2024-03-05 15:03:05,817024,1.0027123,0.0002305,1.4548,349.8725,358.5203,304.4148,0,999,2624,0,-0.00000141,0,4209237,0 SBIRS GEO 4 (USA 273),1 41937U 17004A   24065.62715066 -.00000141  00000-0  00000+0 0  9992,2 41937   1.4548 349.8725 0002305 358.5203 304.4148  1.00271230 26246,2017-004A,41937,42164.888,1436.105,35796.472,35777.034,0
GENERATED VIA SPACETRACK.ORG API,18 SPCS,29162,EUTE 113 WEST A(SATMEX 6,PAYLOAD,U,06020A,2024-03-05 14:58:42,659904,1.00274932,0.0003142,0.2103,99.219,247.1343,289.3148,0,999,6510,0,-0.00000038,0,4209804,0 EUTE 113 WEST A(SATMEX 6,1 29162U 06020A   24065.62410486 -.00000038  00000-0  00000+0 0  9997,2 29162   0.2103  99.2190 0003142 247.1343 289.3148  1.00274932 65107,2006-020A,29162,42163.850,1436.052,35798.963,35772.467,0
GENERATED VIA SPACETRACK.ORG API,18 SPCS,29055,ASTRA 1KR,PAYLOAD,U,06012A,2024-03-05 14:58:42,646080,1.00269887,0.0002866,0.0759,281.3501,12.2917,114.0529,0,999,6538,0,0.0000012,0,4209795,0 ASTRA 1KR,1 29055U 06012A   24065.62410470  .00000120  00000-0  00000+0 0  9993,2 29055   0.0759 281.3501 0002866  12.2917 114.0529  1.00269887 65383,2006-012A,29055,42165.264,1436.124,35799.214,35775.044,0
GENERATED VIA SPACETRACK.ORG API,18 SPCS,41384,IRNSS 1F,PAYLOAD,U,16015A,2024-03-05 13:29:42,784800,1.00276698,0.0020325,3.3287,121.7975,190.6769,86.2326,0,999,2930,0,0.00000158,0,4209183,0 IRNSS 1F,1 41384U 16015A   24065.56230075  .00000158  00000-0  00000-0 0  9992,2 41384   3.3287 121.7975 0020325 190.6769  86.2326  1.00276698 29307,2016-015A,41384,42163.355,1436.027,35870.917,35699.523,0
GENERATED VIA SPACETRACK.ORG API,18 SPCS,42915,TDRS 13,PAYLOAD,U,17047A,2024-03-05 13:20:42,811584,1.00271599,0.0014162,3.7285,342.4702,106.3431,263.6236,0,999,2399,0,-0.00000095,0,4209183,0 TDRS 13,1 42915U 17047A   24065.55605106 -.00000095  00000-0  00000-0 0  9990,2 42915   3.7285 342.4702 0014162 106.3431 263.6236  1.00271599 23997,2017-047A,42915,42164.784,1436.100,35846.363,35726.935,0
GENERATED VIA SPACETRACK.ORG API,18 SPCS,41937,SBIRS GEO 4 (USA 273),PAYLOAD,U,17004A,2024-03-05 13:20:12,924096,1.00271248,0.0002307,1.4548,349.8717,358.5307,278.6144,0,999,2624,0,-0.00000141,0,4209183,0 SBIRS GEO 4 (USA 273),1 41937U 17004A   24065.55570514 -.00000141  00000-0  00000-0 0  9992,2 41937   1.4548 349.8717 0002307 358.5307 278.6144  1.00271248 26241,2017-004A,41937,42164.883,1436.105,35796.475,35777.020,0
GENERATED VIA SPACETRACK.ORG API,18 SPCS,29162,EUTE 113 WEST A(SATMEX 6,PAYLOAD,U,06020A,2024-03-05 13:15:34,729920,1.00274926,0.0003144,0.2101,99.2316,247.0578,263.5243,0,999,6511,0,-0.00000037,0,4209183,0 EUTE 113 WEST A(SATMEX 6,1 29162U 06020A   24065.55248530 -.00000037  00000-0  00000-0 0  9998,2 29162   0.2101  99.2316 0003144 247.0578 263.5243  1.00274926 65110,2006-020A,29162,42163.851,1436.052,35798.973,35772.460,0
GENERATED VIA SPACETRACK.ORG API,18 SPCS,43453,TITAN 3C TRANSTAGE DEB,DEBRIS,U,69013L,2024-03-05 12:53:33,355104,1.07402637,0.0679594,1.7407,232.8478,213.1368,141.6904,0,999,2308,0,-0.00000132,0,4211013,0 TITAN 3C TRANSTAGE DEB,1 43453U 69013L   24065.53719161 -.00000132  00000-0  00000+0 0  9994,2 43453   1.7407 232.8478 0679594 213.1368 141.6904  1.07402637 23086,1969-013L,43453,40277.133,1340.749,36636.207,31161.788,0
GENERATED VIA SPACETRACK.ORG API,18 SPCS,41469,IRNSS 1G,PAYLOAD,U,16027A,2024-03-05 12:51:42,666336,1.00269263,0.0005077,3.2099,123.1028,290.4283,72.6522,0,999,2882,0,-0.00000336,0,4209183,0 IRNSS 1G,1 41469U 16027A   24065.53591049 -.00000336  00000-0  00000-0 0  9996,2 41469   3.2099 123.1028 0005077 290.4283  72.6522  1.00269263 28826,2016-027A,41469,42165.439,1436.133,35808.711,35765.897,0
GENERATED VIA SPACETRACK.ORG API,18 SPCS,38704,TITAN 3C TRANSTAGE DEB,DEBRIS,U,68081AE,2024-03-05 12:33:27,529056,1.02193909,0.0210238,2.1906,62.5228,214.2531,175.0101,0,999,6750,0,-0.00000317,0,4211434,0 TITAN 3C TRANSTAGE DEB,1 38704U 68081AE  24065.52323529 -.00000317  00000-0  00000+0 0  9994,2 38704   2.1906  62.5228 0210238 214.2531 175.0101  1.02193909 67508,1968-081AE,38704,41634.354,1409.086,36131.532,34380.907,0
GENERATED VIA SPACETRACK.ORG API,18 SPCS,25001,TITAN 3C TRANSTAGE DEB,DEBRIS,U,68081H,2024-03-05 12:31:42,267072,1.01696762,0.0068773,1.0316,346.9407,39.3041,58.3294,0,999,10984,0,-0.00000281,0,4209183,0 TITAN 3C TRANSTAGE DEB,1 25001U 68081H   24065.52201698 -.00000281  00000-0  00000-0 0  9993,2 25001   1.0316 346.9407 0068773  39.3041  58.3294  1.01696762109846,1968-081H,25001,41769.931,1415.974,35679.060,35104.532,0
GENERATED VIA SPACETRACK.ORG API,18 SPCS,44457,COSMOS 2539,PAYLOAD,U,19048A,2024-03-05 12:30:42,596640,1.00271453,0.0000171,0.0147,125.7943,151.5702,86.0385,0,999,1686,0,0.00000082,0,4209183,0 COSMOS 2539,1 44457U 19048A   24065.52132635  .00000082  00000-0  00000-0 0  9990,2 44457   0.0147 125.7943 0000171 151.5702  86.0385  1.00271453 16863,2019-048A,44457,42164.825,1436.102,35787.411,35785.969,0
GENERATED VIA SPACETRACK.ORG API,18 SPCS,44479,AMOS 17,PAYLOAD,U,19050A,2024-03-05 12:22:42,723264,1.00270196,0.0002127,0.0211,103.9915,268.6394,353.7665,0,999,1682,0,0.0000011,0,4209183,0 AMOS 17,1 44479U 19050A   24065.51577226  .00000110  00000-0  00000-0 0  9997,2 44479   0.0211 103.9915 0002127 268.6394 353.7665  1.00270196 16820,2019-050A,44479,42165.177,1436.120,35796.011,35778.074,0
GENERATED VIA SPACETRACK.ORG API,18 SPCS,33436,ASTRA 1M,PAYLOAD,U,08057A,2024-03-05 12:22:42,723264,1.00270506,0.0001523,0.0137,101.1172,306.5069,320.9672,0,999,3737,0,0.00000121,0,4209183,0 ASTRA 1M,1 33436U 08057A   24065.51577226  .00000121  00000-0  00000-0 0  9995,2 33436   0.0137 101.1172 0001523 306.5069 320.9672  1.00270506 37375,2008-057A,33436,42165.091,1436.115,35793.377,35780.534,0
GENERATED VIA SPACETRACK.ORG API,18 SPCS,29055,ASTRA 1KR,PAYLOAD,U,06012A,2024-03-05 12:22:42,723264,1.00269847,0.000287,0.0761,281.3205,12.3174,74.951,0,999,3735,0,0.0000012,0,4209183,0 ASTRA 1KR,1 29055U 06012A   24065.51577226  .00000120  00000-0  00000-0 0  9995,2 29055   0.0761 281.3205 0002870  12.3174  74.9510  1.00269847 37354,2006-012A,29055,42165.275,1436.125,35799.242,35775.039,0
